#cP2011  8  9  0  0  0.00000000      96 d+D   IGS08 FIT AIUB
## 1648 172800.00000000   900.00000000 55782 0.0000000000000
+   55   G01G02G03G04G05G06G07G08G09G10G11G12G13G14G15G16G17
+        G18G19G20G21G22G23G24G25G26G27G28G29G30G31G32R01R02
+        R03R04R05R06R07R08R09R10R11R12R13R15R16R17R18R19R20
+        R21R22R23R24  0  0  0  0  0  0  0  0  0  0  0  0  0
+          0  0  0  0  0  0  0  0  0  0  0  0  0  0  0  0  0
++         5  4  6  4  4  6  4  4  4  4  4  4  4  4  4  4  6
++         4  6  4  4  4  4  4  4  4  4  4  6  6  4  4  4  4
++         4  6  4  5  4  4  4  4  5  4  4  5  4  6  6  6  6
++         6  6  6  6  0  0  0  0  0  0  0  0  0  0  0  0  0
++         0  0  0  0  0  0  0  0  0  0  0  0  0  0  0  0  0
%c M  cc GPS ccc cccc cccc cccc cccc ccccc ccccc ccccc ccccc
%c cc cc ccc ccc cccc cccc cccc cccc ccccc ccccc ccccc ccccc
%f  1.2500000  1.025000000  0.00000000000  0.000000000000000
%f  0.0000000  0.000000000  0.00000000000  0.000000000000000
%i    0    0    0    0      0      0      0      0         0
%i    0    0    0    0      0      0      0      0         0
/* Center for Orbit Determination in Europe (CODE)          
/* Final GNSS orbits and GPS clocks for year-day 11221      
/* Note: Middle day of a 3-day arc GPS/GLONASS solution     
/* PCV:IGS08      OL/AL:FES2004  NONE     YN ORB:CoN CLK:CoN
*  2011  8  9 21  0  0.00000000
PG01  11732.731153  16179.407036  17897.766929     -7.802549
PG02 -14206.067787 -10334.656637 -19986.414122    350.589302
PG03  24470.519122  10534.735891   1717.645070    752.808636
PG04  -7274.072165 -22610.643737 -11743.276615    196.785183
PG05 -21480.188092  -1624.184357 -15621.248364   -201.597782
PG06  22572.171659  14189.817576  -1172.202525   -101.136230
PG07   6103.495832 -24906.580851  -6427.250158     21.356957
PG08   1722.032379 -25994.732241   3236.550695      8.803886
PG09 -13509.291488  10791.695418  19613.567508     98.161470
PG10  -6983.037176 -13945.454842 -21717.422684     -9.449090
PG11  14991.663268  -8030.714858  20019.519377   -175.526293
PG12 -23640.794965  11870.820694   -770.228247     14.776098
PG13   7561.700053 -12647.085205 -22233.257115    257.151869
PG14  11507.467220  19918.186195  13575.969798    166.198088
PG15 -21592.754794   -454.612385  15577.840170   -111.564431
PG16  21962.778269   1186.574201 -15094.845420   -190.737975
PG17 -12767.133276 -19792.230712  12642.043192    179.775531
PG18  -9669.397269  18395.266449  16659.710488    151.483216
PG19  22217.682895   5118.671158  13905.562434   -171.211254
PG20  22150.798124 -14385.129293  -2593.146775     51.552005
PG21  -3855.900557  25740.969012  -2828.774544   -163.588403
PG22   4043.774087  15642.860709  21252.162084    145.461012
PG23  16492.905325  -5697.803809 -20113.887735    285.333904
PG24  14435.639286 -13175.275354  17889.631860    413.921008
PG25 -16539.648310  17397.062279 -11365.192314     13.197500
PG26 -22680.338272 -12495.506411   6171.636074   -118.322514
PG27 -14947.179361   3647.040421  22261.984202    293.161545
PG28    221.979344 -16120.399577  21584.954775     58.335479
PG29  -7837.377016  13001.069067 -21725.844084    230.084722
PG30 -18208.107559  17938.805180  -7659.065433     94.501933
PG31   7972.062697  20829.050795 -14061.883816    123.954121
PG32  25161.198782  -6330.014770   4748.748716   -307.578511
PR01  -1415.497465  11636.349434  22665.146055 999999.999999
PR02  16960.064601   4467.713801  18529.256566 999999.999999
PR03  11418.023062  -4283.940902 -22413.132435 999999.999999
PR04 -18694.880040  -7926.072774 -15439.462165 999999.999999
PR05   1506.158358 -11659.019688 -22639.300782 999999.999999
PR06 -16312.911952  -4804.044735 -19005.589368 999999.999999
PR07 -24316.678060   7183.147318  -2651.708981 999999.999999
PR08 -18410.168463  11811.980756  13130.868090 999999.999999
PR09  -6415.413364 -13494.293238  20672.633216 999999.999999
PR10 -11437.732791   4512.920608  22340.425458 999999.999999
PR11 -10244.183845  20530.456436  11059.420983 999999.999999
PR12  -2888.042400  24356.145274  -7363.183579 999999.999999
PR13   6430.310359  13548.724425 -20662.471731 999999.999999
PR15   9503.062651 -21919.931526  -9072.214847 999999.999999
PR16   2807.627367 -24183.601046   7395.203894 999999.999999
PR17  17646.046110   6037.972214  17448.046557 999999.999999
PR18   6319.681849  -8963.760502  23049.030142 999999.999999
PR19  -8554.435182 -18516.729059  15317.383358 999999.999999
PR20 -18691.272412 -17200.781284  -1927.981367 999999.999999
PR21 -17854.548201  -6081.157023 -17226.390500 999999.999999
PR22  -6386.914287   8895.833465 -23038.863283 999999.999999
PR23   8755.658256  18456.912099 -15280.758577 999999.999999
PR24  18702.389082  17306.298070   1159.932245 999999.999999
*  2011  8  9 21 15  0.00000000
PG01  11554.708111  18081.695181  16102.718036     -7.801300
PG02 -14071.913227 -12559.713725 -18819.637658    350.590744
PG03  24415.712503  10860.753483  -1056.811384    752.813865
PG04  -6943.829052 -23791.417793  -9279.654472    196.794843
PG05 -19904.174165  -2678.311552 -17447.740277   -201.602772
PG06  22157.409827  14310.167568  -3945.076369   -101.126577
PG07   6288.578452 -24003.933829  -9135.416504     21.358676
PG08   1938.309398 -26172.114768    285.658951      8.803173
PG09 -13568.264382   8377.462333  20691.205664     98.162149
PG10  -4803.578826 -15032.496555 -21547.868937     -9.451274
PG11  15615.997166  -5698.304721  20365.271576   -175.529213
PG12 -23676.410337  11635.646746   2124.632229     14.778249
PG13   9584.248581 -11165.167911 -22253.609997    257.150894
PG14  10085.386662  19086.745554  15741.262013    166.199776
PG15 -22920.388593  -1469.304995  13491.808213   -111.562900
PG16  20381.983218   2111.590824 -17053.945520   -190.740035
PG17 -11379.521706 -19093.140482  14852.272576    179.774635
PG18 -11345.096428  18998.808658  14745.827128    151.485062
PG19  23273.873669   6130.123883  11611.945000   -171.215041
PG20  22430.118217 -14154.820341    203.712767     51.552067
PG21  -4220.227909  25187.367886  -5603.073927   -163.590648
PG22   1902.104647  16678.952048  20743.461733    145.460889
PG23  18320.864832  -4434.175193 -18841.820529    285.331274
PG24  14423.222995 -11035.257090  19322.643728    413.924904
PG25 -17651.622581  17768.590104  -8826.008448     13.199060
PG26 -23079.483283 -12977.480667   3355.634442   -118.333749
PG27 -15016.619728   1229.289274  22516.904782    293.163890
PG28   2330.708759 -17070.253226  20666.624502     58.338118
PG29  -9908.765191  11605.953163 -21666.106198    230.087464
PG30 -18908.021980  18111.789678  -4935.351965     94.501721
PG31   7733.880623  22329.175151 -11712.426873    123.959281
PG32  24655.081460  -5791.752207   7498.372451   -307.584836
PR01  -4020.881580  12503.646377  21877.795333 999999.999999
PR02  14663.588911   5130.987964  20239.764080 999999.999999
PR03  10809.157275  -1544.843682 -23069.608417 999999.999999
PR04 -20077.741761  -9005.932809 -12905.062077 999999.999999
PR05   4108.962073 -12527.434687 -21838.560038 999999.999999
PR06 -13963.130399  -5482.169893 -20628.161697 999999.999999
PR07 -23804.820139   7065.762341  -5777.835717 999999.999999
PR08 -19756.945679  12357.359613  10381.651694 999999.999999
PR09  -5951.845903 -15906.229759  19040.921447 999999.999999
PR10 -10819.512681   1774.414539  23015.223530 999999.999999
PR11  -9774.183475  19057.168284  13789.273713 999999.999999
PR12  -2877.986102  25086.353488  -4257.051133 999999.999999
PR13   6025.007125  15960.391170 -18994.978892 999999.999999
PR15   9049.882960 -20689.785078 -11956.622366 999999.999999
PR16   2820.747155 -24927.042667   4272.879361 999999.999999
PR17  19197.334345   7321.502879  15176.826906 999999.999999
PR18   8422.278211  -7056.240843  23048.917584 999999.999999
PR19  -7141.130009 -17054.795884  17572.814022 999999.999999
PR20 -18829.145240 -17110.483710   1295.919624 999999.999999
PR21 -19398.433202  -7326.958676 -14925.582709 999999.999999
PR22  -8492.655140   6986.139081 -23004.325450 999999.999999
PR23   7328.113600  17017.408999 -17537.287332 999999.999999
PR24  18768.790497  17154.281587  -2056.210971 999999.999999
EOF
